start=new Date('2022-03-28T00:00:00.000Z').valueOf();
sats=[{"EPHEMERIS_TYPE":"0","SITE":"AFETR","APOAPSIS":"548.409","MEAN_MOTION_DDOT":"0.0000000000000","DECAY_DATE":null,"BSTAR":"0.00013593000000","SEMIMAJOR_AXIS":"6925.330","TLE_LINE2":"2 45669  53.0556  63.3842 0001753  56.1292 303.9863 15.06406097101274","MEAN_ANOMALY":"303.9863","TLE_LINE1":"1 45669U 20035N   22086.93615022  .00001744  00000-0  13593-3 0  9996","LAUNCH_DATE":"2020-06-04","OBJECT_TYPE":"PAYLOAD","FILE":"3377053","ARG_OF_PERICENTER":"56.1292","OBJECT_ID":"2020-035N","RCS_SIZE":"LARGE","EPOCH":"2022-03-27T22:28:03.379008","TIME_SYSTEM":"UTC","NORAD_CAT_ID":"45669","MEAN_MOTION_DOT":"0.00001744","PERIOD":"95.592","MEAN_ELEMENT_THEORY":"SGP4","ELEMENT_SET_NO":"999","REV_AT_EPOCH":"10127","OBJECT_NAME":"STARLINK-1452","RA_OF_ASC_NODE":"63.3842","PERIAPSIS":"545.981","ECCENTRICITY":"0.00017530","REF_FRAME":"TEME","GP_ID":"199860636","MEAN_MOTION":"15.06406097","INCLINATION":"53.0556","CENTER_NAME":"EARTH","COUNTRY_CODE":"US","CLASSIFICATION_TYPE":"U"},{"TIME_SYSTEM":"UTC","NORAD_CAT_ID":"45670","RCS_SIZE":"LARGE","EPOCH":"2022-03-27T20:40:34.400064","OBJECT_ID":"2020-035P","FILE":"3377053","ARG_OF_PERICENTER":"56.4083","OBJECT_TYPE":"PAYLOAD","LAUNCH_DATE":"2020-06-04","SEMIMAJOR_AXIS":"6925.348","TLE_LINE1":"1 45670U 20035P   22086.86150926  .00000978  00000-0  84538-4 0  9993","TLE_LINE2":"2 45670  53.0571  33.7290 0001794  56.4083 303.7077 15.06400273101575","MEAN_ANOMALY":"303.7077","DECAY_DATE":null,"BSTAR":"0.00008453800000","MEAN_MOTION_DDOT":"0.0000000000000","APOAPSIS":"548.455","SITE":"AFETR","EPHEMERIS_TYPE":"0","CLASSIFICATION_TYPE":"U","COUNTRY_CODE":"US","CENTER_NAME":"EARTH","INCLINATION":"53.0571","GP_ID":"199860886","MEAN_MOTION":"15.06400273","REV_AT_EPOCH":"10157","OBJECT_NAME":"STARLINK-1453","REF_FRAME":"TEME","PERIAPSIS":"545.970","RA_OF_ASC_NODE":"33.7290","ECCENTRICITY":"0.00017940","MEAN_ELEMENT_THEORY":"SGP4","PERIOD":"95.592","ELEMENT_SET_NO":"999","MEAN_MOTION_DOT":"0.00000978"},{"CLASSIFICATION_TYPE":"U","CENTER_NAME":"EARTH","COUNTRY_CODE":"US","INCLINATION":"53.0550","GP_ID":"199861138","MEAN_MOTION":"15.06405492","REV_AT_EPOCH":"10122","OBJECT_NAME":"STARLINK-1454","PERIAPSIS":"545.893","ECCENTRICITY":"0.00018830","RA_OF_ASC_NODE":"64.5593","REF_FRAME":"TEME","MEAN_ELEMENT_THEORY":"SGP4","PERIOD":"95.592","ELEMENT_SET_NO":"999","MEAN_MOTION_DOT":"0.00000812","TIME_SYSTEM":"UTC","NORAD_CAT_ID":"45671","RCS_SIZE":"LARGE","EPOCH":"2022-03-27T16:11:12.729696","OBJECT_ID":"2020-035Q","FILE":"3377053","ARG_OF_PERICENTER":"61.3115","OBJECT_TYPE":"PAYLOAD","LAUNCH_DATE":"2020-06-04","SEMIMAJOR_AXIS":"6925.332","TLE_LINE1":"1 45671U 20035Q   22086.67445289  .00000812  00000-0  73419-4 0  9995","TLE_LINE2":"2 45671  53.0550  64.5593 0001883  61.3115 298.8063 15.06405492101220","MEAN_ANOMALY":"298.8063","DECAY_DATE":null,"BSTAR":"0.00007341900000","MEAN_MOTION_DDOT":"0.0000000000000","APOAPSIS":"548.501","SITE":"AFETR","EPHEMERIS_TYPE":"0"},{"LAUNCH_DATE":"2020-06-04","OBJECT_TYPE":"PAYLOAD","ARG_OF_PERICENTER":"56.1624","FILE":"3377053","OBJECT_ID":"2020-035R","EPOCH":"2022-03-27T21:12:25.849728","RCS_SIZE":"LARGE","NORAD_CAT_ID":"45672","TIME_SYSTEM":"UTC","EPHEMERIS_TYPE":"0","SITE":"AFETR","APOAPSIS":"548.359","MEAN_MOTION_DDOT":"0.0000000000000","BSTAR":"0.00006558400000","DECAY_DATE":null,"MEAN_ANOMALY":"303.9518","TLE_LINE2":"2 45672  53.0558  33.6333 0001614  56.1624 303.9518 15.06390942101683","TLE_LINE1":"1 45672U 20035R   22086.88363252  .00000695  00000-0  65584-4 0  9991","SEMIMAJOR_AXIS":"6925.376","CLASSIFICATION_TYPE":"U","MEAN_MOTION_DOT":"0.00000695","ELEMENT_SET_NO":"999","PERIOD":"95.593","MEAN_ELEMENT_THEORY":"SGP4","ECCENTRICITY":"0.00016140","PERIAPSIS":"546.124","RA_OF_ASC_NODE":"33.6333","REF_FRAME":"TEME","REV_AT_EPOCH":"10168","OBJECT_NAME":"STARLINK-1455","MEAN_MOTION":"15.06390942","GP_ID":"199861375","INCLINATION":"53.0558","COUNTRY_CODE":"US","CENTER_NAME":"EARTH"},{"INCLINATION":"53.0531","MEAN_MOTION":"15.06402621","GP_ID":"199860137","CENTER_NAME":"EARTH","COUNTRY_CODE":"US","ELEMENT_SET_NO":"999","PERIOD":"95.592","MEAN_ELEMENT_THEORY":"SGP4","MEAN_MOTION_DOT":"0.00005787","PERIAPSIS":"545.855","RA_OF_ASC_NODE":"63.5951","ECCENTRICITY":"0.00019500","REF_FRAME":"TEME","OBJECT_NAME":"STARLINK-1456","REV_AT_EPOCH":"10127","CLASSIFICATION_TYPE":"U","MEAN_MOTION_DDOT":"0.0000000000000","TLE_LINE2":"2 45673  53.0531  63.5951 0001950  54.5305 305.5865 15.06402621101270","TLE_LINE1":"1 45673U 20035S   22086.88823431  .00005787  00000-0  40706-3 0  9997","MEAN_ANOMALY":"305.5865","SEMIMAJOR_AXIS":"6925.341","BSTAR":"0.00040706000000","DECAY_DATE":null,"EPHEMERIS_TYPE":"0","SITE":"AFETR","APOAPSIS":"548.556","OBJECT_ID":"2020-035S","NORAD_CAT_ID":"45673","TIME_SYSTEM":"UTC","EPOCH":"2022-03-27T21:19:03.444384","RCS_SIZE":"LARGE","OBJECT_TYPE":"PAYLOAD","LAUNCH_DATE":"2020-06-04","ARG_OF_PERICENTER":"54.5305","FILE":"3377053"},{"LAUNCH_DATE":"2020-06-04","OBJECT_TYPE":"PAYLOAD","ARG_OF_PERICENTER":"62.7809","FILE":"3377053","OBJECT_ID":"2020-035T","RCS_SIZE":"LARGE","EPOCH":"2022-03-27T21:29:40.158816","NORAD_CAT_ID":"45674","TIME_SYSTEM":"UTC","EPHEMERIS_TYPE":"0","SITE":"AFETR","APOAPSIS":"548.349","MEAN_MOTION_DDOT":"0.0000000000000","BSTAR":"0.00003811500000","DECAY_DATE":null,"MEAN_ANOMALY":"297.3348","TLE_LINE2":"2 45674  53.0554  63.5694 0001647  62.7809 297.3348 15.06401783101242","TLE_LINE1":"1 45674U 20035T   22086.89560369  .00000286  00000-0  38115-4 0  9998","SEMIMAJOR_AXIS":"6925.343","CLASSIFICATION_TYPE":"U","MEAN_MOTION_DOT":"0.00000286","ELEMENT_SET_NO":"999","PERIOD":"95.592","MEAN_ELEMENT_THEORY":"SGP4","PERIAPSIS":"546.067","RA_OF_ASC_NODE":"63.5694","REF_FRAME":"TEME","ECCENTRICITY":"0.00016470","REV_AT_EPOCH":"10124","OBJECT_NAME":"STARLINK-1457","MEAN_MOTION":"15.06401783","GP_ID":"199860387","INCLINATION":"53.0554","CENTER_NAME":"EARTH","COUNTRY_CODE":"US"},{"ELEMENT_SET_NO":"999","PERIOD":"95.592","MEAN_ELEMENT_THEORY":"SGP4","MEAN_MOTION_DOT":"-0.00000115","PERIAPSIS":"545.600","REF_FRAME":"TEME","RA_OF_ASC_NODE":"63.6150","ECCENTRICITY":"0.00023400","OBJECT_NAME":"STARLINK-1458","REV_AT_EPOCH":"10123","INCLINATION":"53.0545","MEAN_MOTION":"15.06397561","GP_ID":"199861638","COUNTRY_CODE":"US","CENTER_NAME":"EARTH","CLASSIFICATION_TYPE":"U","EPHEMERIS_TYPE":"0","SITE":"AFETR","APOAPSIS":"548.842","MEAN_MOTION_DDOT":"0.0000000000000","TLE_LINE2":"2 45675  53.0545  63.6150 0002340  47.1569 312.9617 15.06397561101232","TLE_LINE1":"1 45675U 20035U   22086.88455613 -.00000115  00000-0  11195-4 0  9994","MEAN_ANOMALY":"312.9617","SEMIMAJOR_AXIS":"6925.356","BSTAR":"0.00001119500000","DECAY_DATE":null,"OBJECT_TYPE":"PAYLOAD","LAUNCH_DATE":"2020-06-04","FILE":"3377053","ARG_OF_PERICENTER":"47.1569","OBJECT_ID":"2020-035U","NORAD_CAT_ID":"45675","TIME_SYSTEM":"UTC","EPOCH":"2022-03-27T21:13:45.649632","RCS_SIZE":"LARGE"},{"LAUNCH_DATE":"2020-06-04","OBJECT_TYPE":"PAYLOAD","ARG_OF_PERICENTER":"49.2827","FILE":"3377053","OBJECT_ID":"2020-035V","RCS_SIZE":"LARGE","EPOCH":"2022-03-27T22:06:49.706496","TIME_SYSTEM":"UTC","NORAD_CAT_ID":"45676","EPHEMERIS_TYPE":"0","SITE":"AFETR","APOAPSIS":"548.506","MEAN_MOTION_DDOT":"0.0000000000000","DECAY_DATE":null,"BSTAR":"0.00016102000000","SEMIMAJOR_AXIS":"6925.331","TLE_LINE1":"1 45676U 20035V   22086.92140864  .00002118  00000-0  16102-3 0  9995","TLE_LINE2":"2 45676  53.0563  63.4582 0001892  49.2827 310.8326 15.06405872101230","MEAN_ANOMALY":"310.8326","CLASSIFICATION_TYPE":"U","MEAN_MOTION_DOT":"0.00002118","MEAN_ELEMENT_THEORY":"SGP4","PERIOD":"95.592","ELEMENT_SET_NO":"999","REV_AT_EPOCH":"10123","OBJECT_NAME":"STARLINK-1460","PERIAPSIS":"545.885","ECCENTRICITY":"0.00018920","RA_OF_ASC_NODE":"63.4582","REF_FRAME":"TEME","GP_ID":"199861875","MEAN_MOTION":"15.06405872","INCLINATION":"53.0563","COUNTRY_CODE":"US","CENTER_NAME":"EARTH"},{"DECAY_DATE":null,"BSTAR":"0.00008495500000","SEMIMAJOR_AXIS":"6925.323","TLE_LINE2":"2 45677  53.0538  63.4094 0002013  47.4622 312.6537 15.06408295101270","TLE_LINE1":"1 45677U 20035W   22086.93246214  .00000984  00000-0  84955-4 0  9994","MEAN_ANOMALY":"312.6537","MEAN_MOTION_DDOT":"0.0000000000000","APOAPSIS":"548.582","SITE":"AFETR","EPHEMERIS_TYPE":"0","EPOCH":"2022-03-27T22:22:44.728896","RCS_SIZE":"LARGE","TIME_SYSTEM":"UTC","NORAD_CAT_ID":"45677","OBJECT_ID":"2020-035W","FILE":"3377053","ARG_OF_PERICENTER":"47.4622","LAUNCH_DATE":"2020-06-04","OBJECT_TYPE":"PAYLOAD","CENTER_NAME":"EARTH","COUNTRY_CODE":"US","GP_ID":"199860637","MEAN_MOTION":"15.06408295","INCLINATION":"53.0538","REV_AT_EPOCH":"10127","OBJECT_NAME":"STARLINK-1392","PERIAPSIS":"545.794","REF_FRAME":"TEME","RA_OF_ASC_NODE":"63.4094","ECCENTRICITY":"0.00020130","MEAN_MOTION_DOT":"0.00000984","PERIOD":"95.592","MEAN_ELEMENT_THEORY":"SGP4","ELEMENT_SET_NO":"999","CLASSIFICATION_TYPE":"U"},{"EPOCH":"2022-03-27T22:13:28.540128","RCS_SIZE":"LARGE","NORAD_CAT_ID":"45678","TIME_SYSTEM":"UTC","OBJECT_ID":"2020-035X","ARG_OF_PERICENTER":"53.2097","FILE":"3377053","LAUNCH_DATE":"2020-06-04","OBJECT_TYPE":"PAYLOAD","BSTAR":"0.00004043100000","DECAY_DATE":null,"TLE_LINE2":"2 45678  53.0549  53.4240 0001868  53.2097 306.9063 15.06393164101394","TLE_LINE1":"1 45678U 20035X   22086.92602477  .00000321  00000-0  40431-4 0  9997","MEAN_ANOMALY":"306.9063","SEMIMAJOR_AXIS":"6925.370","MEAN_MOTION_DDOT":"0.0000000000000","SITE":"AFETR","APOAPSIS":"548.528","EPHEMERIS_TYPE":"0","CLASSIFICATION_TYPE":"U","COUNTRY_CODE":"US","CENTER_NAME":"EARTH","MEAN_MOTION":"15.06393164","GP_ID":"199860887","INCLINATION":"53.0549","RA_OF_ASC_NODE":"53.4240","PERIAPSIS":"545.941","REF_FRAME":"TEME","ECCENTRICITY":"0.00018680","REV_AT_EPOCH":"10139","OBJECT_NAME":"STARLINK-1393","MEAN_MOTION_DOT":"0.00000321","ELEMENT_SET_NO":"999","PERIOD":"95.593","MEAN_ELEMENT_THEORY":"SGP4"}];
